[{"OBJECT_NAME":"STARLINK-3538","OBJECT_ID":"2022-025AS","EPOCH":"2026-03-09T01:33:50.543712","MEAN_MOTION":15.08846662,"ECCENTRICITY":0.00020035,"INCLINATION":53.2186,"RA_OF_ASC_NODE":21.9251,"ARG_OF_PERICENTER":84.1129,"MEAN_ANOMALY":276.0092,"EPHEMERIS_TYPE":0,"CLASSIFICATION_TYPE":"U","NORAD_CAT_ID":51996,"ELEMENT_SET_NO":999,"REV_AT_EPOCH":22082,"BSTAR":-0.00011352323,"MEAN_MOTION_DOT":-2.095e-5,"MEAN_MOTION_DDOT":0},{"OBJECT_NAME":"JILIN-01 KUANFU 02B 5","OBJECT_ID":"2024-169E","EPOCH":"2026-03-09T22:46:28.718400","MEAN_MOTION":15.09244096,"ECCENTRICITY":0.00111722,"INCLINATION":97.556,"RA_OF_ASC_NODE":160.0628,"ARG_OF_PERICENTER":294.0678,"MEAN_ANOMALY":65.9381,"EPHEMERIS_TYPE":0,"CLASSIFICATION_TYPE":"U","NORAD_CAT_ID":61193,"ELEMENT_SET_NO":999,"REV_AT_EPOCH":8086,"BSTAR":0.00034816655,"MEAN_MOTION_DOT":5.486e-5,"MEAN_MOTION_DDOT":0}]
